{"fetched_at":"2026-03-29T02:12:04Z","count":15717,"tles":[{"name":"O3B FM5","line1":"1 39188U 13031A   26087.08443740 -.00000029  00000+0  00000+0 0  9990","line2":"2 39188   0.1013   7.8394 0003249 349.0661   3.0879  5.00116427232981","category":"Other"}]}